{"type": "FeatureCollection", "features": [ {"type": "Feature", "properties": {"norad_id": 61182, "name": "GSAT0232 (GALILEO 32)", "group": "gnss", "lat": -7.090760389879174, "lon": -138.92929834174248, "alt_km": 23228.21970843812, "timestamp": "2025-12-27T23:26:37.605968+00:00", "meta": {"OBJECT_NAME": "GSAT0232 (GALILEO 32)", "OBJECT_ID": "2024-167A", "EPOCH": "2025-12-24T18:25:47.943264", "MEAN_MOTION": 1.70473505, "ECCENTRICITY": 0.0001887, "INCLINATION": 55.2374, "RA_OF_ASC_NODE": 226.1008, "ARG_OF_PERICENTER": 202.1814, "MEAN_ANOMALY": 339.8736, "EPHEMERIS_TYPE": 0, "CLASSIFICATION_TYPE": "U", "NORAD_CAT_ID": 61182, "ELEMENT_SET_NO": 999, "REV_AT_EPOCH": 790, "BSTAR": 0, "MEAN_MOTION_DOT": 7.1e-07, "MEAN_MOTION_DDOT": 0}, "tle": {"line1": "1 61182U 24167A   25358.76791601  .00000071  00000+0  00000+0 0  9994", "line2": "2 61182  55.2374 226.1008 0001887 202.1814 339.8736  1.70473505  7904"}}, "geometry": {"type": "Point", "coordinates": [-138.92929834174248, -7.090760389879174]}}, {"type": "Feature", "properties": {"norad_id": 61183, "name": "GSAT0226 (GALILEO 31)", "group": "gnss", "lat": 52.83505746395878, "lon": -20.29963573744413, "alt_km": 23212.19298311687, "timestamp": "2025-12-27T23:26:37.605979+00:00", "meta": {"OBJECT_NAME": "GSAT0226 (GALILEO 31)", "OBJECT_ID": "2024-167B", "EPOCH": "2025-12-27T12:27:19.857312", "MEAN_MOTION": 1.70473469, "ECCENTRICITY": 0.0001323, "INCLINATION": 55.2354, "RA_OF_ASC_NODE": 226.0305, "ARG_OF_PERICENTER": 110.2873, "MEAN_ANOMALY": 72.8177, "EPHEMERIS_TYPE": 0, "CLASSIFICATION_TYPE": "U", "NORAD_CAT_ID": 61183, "ELEMENT_SET_NO": 999, "REV_AT_EPOCH": 792, "BSTAR": 0, "MEAN_MOTION_DOT": 7.2e-07, "MEAN_MOTION_DDOT": 0}, "tle": {"line1": "1 61183U 24167B   25361.51897983  .00000072  00000+0  00000+0 0  9993", "line2": "2 61183  55.2354 226.0305 0001323 110.2873  72.8177  1.70473469  7925"}}, "geometry": {"type": "Point", "coordinates": [-20.29963573744413, 52.83505746395878]}}, {"type": "Feature", "properties": {"norad_id": 61186, "name": "BEIDOU-3 M25 (C47)", "group": "gnss", "lat": -38.96833505135188, "lon": 163.20874905280982, "alt_km": 21527.718969804926, "timestamp": "2025-12-27T23:26:37.605990+00:00", "meta": {"OBJECT_NAME": "BEIDOU-3 M25 (C47)", "OBJECT_ID": "2024-168B", "EPOCH": "2025-12-27T08:49:57.848160", "MEAN_MOTION": 1.86229881, "ECCENTRICITY": 0.000539, "INCLINATION": 54.6289, "RA_OF_ASC_NODE": 308.2141, "ARG_OF_PERICENTER": 300.5996, "MEAN_ANOMALY": 241.7182, "EPHEMERIS_TYPE": 0, "CLASSIFICATION_TYPE": "U", "NORAD_CAT_ID": 61186, "ELEMENT_SET_NO": 999, "REV_AT_EPOCH": 858, "BSTAR": 0, "MEAN_MOTION_DOT": -6.1e-07, "MEAN_MOTION_DDOT": 0}, "tle": {"line1": "1 61186U 24168B   25361.36803065 -.00000061  00000+0  00000+0 0  9997", "line2": "2 61186  54.6289 308.2141 0005390 300.5996 241.7182  1.86229881  8587"}}, "geometry": {"type": "Point", "coordinates": [163.20874905280982, -38.96833505135188]}}, {"type": "Feature", "properties": {"norad_id": 61187, "name": "BEIDOU-3 M27 (C49)", "group": "gnss", "lat": 4.433027957720881, "lon": -48.685524141378714, "alt_km": 21521.341864660273, "timestamp": "2025-12-27T23:26:37.606001+00:00", "meta": {"OBJECT_NAME": "BEIDOU-3 M27 (C49)", "OBJECT_ID": "2024-168C", "EPOCH": "2025-12-26T02:09:38.712960", "MEAN_MOTION": 1.86230112, "ECCENTRICITY": 0.00025351, "INCLINATION": 54.6256, "RA_OF_ASC_NODE": 308.2421, "ARG_OF_PERICENTER": 341.7609, "MEAN_ANOMALY": 198.677, "EPHEMERIS_TYPE": 0, "CLASSIFICATION_TYPE": "U", "NORAD_CAT_ID": 61187, "ELEMENT_SET_NO": 999, "REV_AT_EPOCH": 603, "BSTAR": 0, "MEAN_MOTION_DOT": -5.6e-07, "MEAN_MOTION_DDOT": 0}, "tle": {"line1": "1 61187U 24168C   25360.09003140 -.00000056  00000+0  00000+0 0  9997", "line2": "2 61187  54.6256 308.2421 0002535 341.7609 198.6770  1.86230112  6039"}}, "geometry": {"type": "Point", "coordinates": [-48.685524141378714, 4.433027957720881]}}, {"type": "Feature", "properties": {"norad_id": 62339, "name": "GPS BIII-7  (PRN 01)", "group": "gnss", "lat": 52.89208733598462, "lon": 92.88062329381457, "alt_km": 20190.86642760644, "timestamp": "2025-12-27T23:26:37.606012+00:00", "meta": {"OBJECT_NAME": "GPS BIII-7  (PRN 01)", "OBJECT_ID": "2024-242A", "EPOCH": "2025-12-26T14:04:39.646272", "MEAN_MOTION": 2.00567975, "ECCENTRICITY": 0.0012885, "INCLINATION": 54.9194, "RA_OF_ASC_NODE": 341.1802, "ARG_OF_PERICENTER": 346.4396, "MEAN_ANOMALY": 192.481, "EPHEMERIS_TYPE": 0, "CLASSIFICATION_TYPE": "U", "NORAD_CAT_ID": 62339, "ELEMENT_SET_NO": 999, "REV_AT_EPOCH": 779, "BSTAR": 0, "MEAN_MOTION_DOT": -6e-07, "MEAN_MOTION_DDOT": 0}, "tle": {"line1": "1 62339U 24242A   25360.58656998 -.00000060  00000+0  00000+0 0  9994", "line2": "2 62339  54.9194 341.1802 0012885 346.4396 192.4810  2.00567975  7794"}}, "geometry": {"type": "Point", "coordinates": [92.88062329381457, 52.89208733598462]}}, {"type": "Feature", "properties": {"norad_id": 62850, "name": "NVS-02 (IRNSS-1K)", "group": "gnss", "lat": -13.697471418898369, "lon": -178.3275860495444, "alt_km": 36719.04158010136, "timestamp": "2025-12-27T23:26:37.606026+00:00", "meta": {"OBJECT_NAME": "NVS-02 (IRNSS-1K)", "OBJECT_ID": "2025-020A", "EPOCH": "2025-12-27T06:03:41.647104", "MEAN_MOTION": 2.17606169, "ECCENTRICITY": 0.7347386, "INCLINATION": 20.951, "RA_OF_ASC_NODE": 322.4021, "ARG_OF_PERICENTER": 35.6482, "MEAN_ANOMALY": 356.0616, "EPHEMERIS_TYPE": 0, "CLASSIFICATION_TYPE": "U", "NORAD_CAT_ID": 62850, "ELEMENT_SET_NO": 999, "REV_AT_EPOCH": 723, "BSTAR": 0.00025233, "MEAN_MOTION_DOT": 3.51e-06, "MEAN_MOTION_DDOT": 0}, "tle": {"line1": "1 62850U 25020A   25361.25256536  .00000351  00000+0  25233-3 0  9997", "line2": "2 62850  20.9510 322.4021 7347386  35.6482 356.0616  2.17606169  7237"}}, "geometry": {"type": "Point", "coordinates": [-178.3275860495444, -13.697471418898369]}}, {"type": "Feature", "properties": {"norad_id": 62876, "name": "QZS-6 (QZSS/PRN 200)", "group": "gnss", "lat": 0.06494834002832582, "lon": 178.85280183018276, "alt_km": 35788.595057042345, "timestamp": "2025-12-27T23:26:37.606040+00:00", "meta": {"OBJECT_NAME": "QZS-6 (QZSS/PRN 200)", "OBJECT_ID": "2025-023A", "EPOCH": "2025-12-27T03:09:34.758720", "MEAN_MOTION": 1.00269613, "ECCENTRICITY": 0.00017871, "INCLINATION": 0.0638, "RA_OF_ASC_NODE": 75.7358, "ARG_OF_PERICENTER": 207.2742, "MEAN_ANOMALY": 310.7818, "EPHEMERIS_TYPE": 0, "CLASSIFICATION_TYPE": "U", "NORAD_CAT_ID": 62876, "ELEMENT_SET_NO": 999, "REV_AT_EPOCH": 323, "BSTAR": 0, "MEAN_MOTION_DOT": -2.11e-06, "MEAN_MOTION_DDOT": 0}, "tle": {"line1": "1 62876U 25023A   25361.13165230 -.00000211  00000+0  00000+0 0  9992", "line2": "2 62876   0.0638  75.7358 0001787 207.2742 310.7818  1.00269613  3234"}}, "geometry": {"type": "Point", "coordinates": [178.85280183018276, 0.06494834002832582]}}, {"type": "Feature", "properties": {"norad_id": 63130, "name": "COSMOS 2584 (704K)", "group": "gnss", "lat": 64.96080249692297, "lon": 165.16683030365868, "alt_km": 19136.183105319127, "timestamp": "2025-12-27T23:26:37.606053+00:00", "meta": {"OBJECT_NAME": "COSMOS 2584 (704K)", "OBJECT_ID": "2025-042A", "EPOCH": "2025-12-24T02:34:25.549824", "MEAN_MOTION": 2.13102981, "ECCENTRICITY": 0.00077651, "INCLINATION": 64.9819, "RA_OF_ASC_NODE": 78.7588, "ARG_OF_PERICENTER": 220.6893, "MEAN_ANOMALY": 139.3012, "EPHEMERIS_TYPE": 0, "CLASSIFICATION_TYPE": "U", "NORAD_CAT_ID": 63130, "ELEMENT_SET_NO": 999, "REV_AT_EPOCH": 631, "BSTAR": 0, "MEAN_MOTION_DOT": 1e-08, "MEAN_MOTION_DDOT": 0}, "tle": {"line1": "1 63130U 25042A   25358.10724016  .00000001  00000+0  00000+0 0  9999", "line2": "2 63130  64.9819  78.7588 0007765 220.6893 139.3012  2.13102981  6316"}}, "geometry": {"type": "Point", "coordinates": [165.16683030365868, 64.96080249692297]}}, {"type": "Feature", "properties": {"norad_id": 64202, "name": "GPS BIII-8  (PRN 21)", "group": "gnss", "lat": -49.68150073317687, "lon": -17.209264497548098, "alt_km": 20173.292397824032, "timestamp": "2025-12-27T23:26:37.606064+00:00", "meta": {"OBJECT_NAME": "GPS BIII-8  (PRN 21)", "OBJECT_ID": "2025-116A", "EPOCH": "2025-12-26T01:49:27.319296", "MEAN_MOTION": 2.00557298, "ECCENTRICITY": 0.00059923, "INCLINATION": 55.1151, "RA_OF_ASC_NODE": 38.103, "ARG_OF_PERICENTER": 311.0999, "MEAN_ANOMALY": 48.1681, "EPHEMERIS_TYPE": 0, "CLASSIFICATION_TYPE": "U", "NORAD_CAT_ID": 64202, "ELEMENT_SET_NO": 999, "REV_AT_EPOCH": 439, "BSTAR": 0, "MEAN_MOTION_DOT": -5.1e-07, "MEAN_MOTION_DDOT": 0}, "tle": {"line1": "1 64202U 25116A   25360.07601064 -.00000051  00000+0  00000+0 0  9994", "line2": "2 64202  55.1151  38.1030 0005992 311.0999  48.1681  2.00557298  4398"}}, "geometry": {"type": "Point", "coordinates": [-17.209264497548098, -49.68150073317687]}}, {"type": "Feature", "properties": {"norad_id": 65590, "name": "COSMOS 2596 (708K)", "group": "gnss", "lat": -24.093032835976224, "lon": 153.1158199592217, "alt_km": 19140.24187955113, "timestamp": "2025-12-27T23:26:37.606077+00:00", "meta": {"OBJECT_NAME": "COSMOS 2596 (708K)", "OBJECT_ID": "2025-206B", "EPOCH": "2025-12-27T06:55:12.849888", "MEAN_MOTION": 2.13100119, "ECCENTRICITY": 0.0014053, "INCLINATION": 64.7362, "RA_OF_ASC_NODE": 320.9699, "ARG_OF_PERICENTER": 307.7312, "MEAN_ANOMALY": 91.0332, "EPHEMERIS_TYPE": 0, "CLASSIFICATION_TYPE": "U", "NORAD_CAT_ID": 65590, "ELEMENT_SET_NO": 999, "REV_AT_EPOCH": 225, "BSTAR": 0, "MEAN_MOTION_DOT": -3.8e-07, "MEAN_MOTION_DDOT": 0}, "tle": {"line1": "1 65590U 25206B   25361.28834317 -.00000038  00000+0  00000+0 0  9993", "line2": "2 65590  64.7362 320.9699 0014053 307.7312  91.0332  2.13100119  2254"}}, "geometry": {"type": "Point", "coordinates": [153.1158199592217, -24.093032835976224]}}]}